OBJECT_NAME,OBJECT_ID,EPOCH,MEAN_MOTION,ECCENTRICITY,INCLINATION,RA_OF_ASC_NODE,ARG_OF_PERICENTER,MEAN_ANOMALY,EPHEMERIS_TYPE,CLASSIFICATION_TYPE,NORAD_CAT_ID,ELEMENT_SET_NO,REV_AT_EPOCH,BSTAR,MEAN_MOTION_DOT,MEAN_MOTION_DDOT
GUOWANG TEST OBJECT A,2026-120A,2026-06-07T11:06:12.288672,15.38803685,.00095994,54.9967,71.5399,294.3963,65.6063,0,U,69320,999,119,.24095813E-3,.9002E-4,0
GUOWANG TEST OBJECT B,2026-120B,2026-06-11T00:46:53.506272,15.39043592,.0009365,54.9985,55.4407,313.0317,46.9926,0,U,69321,999,174,.260805E-3,.9856E-4,0
GUOWANG TEST OBJECT C,2026-120C,2026-06-07T21:56:00.773376,15.39284097,.00098504,54.9968,69.4792,309.3319,50.6835,0,U,69322,999,126,.41735581E-3,.16153E-3,0
GUOWANG TEST OBJECT D,2026-120D,2026-06-11T05:22:50.409120,15.38912611,.00104865,54.9983,54.5451,328.4140,31.6258,0,U,69323,999,177,.10674889E-3,.3781E-4,0
QIANFAN-163,2026-121A,2026-06-07T22:57:09.243936,13.60351284,.00192,89.0167,301.4498,214.2671,145.7248,0,U,69325,999,90,.25988E-4,.32E-6,0
QIANFAN-164,2026-121B,2026-06-11T04:36:06.685056,13.60354960,.0019336,89.0160,301.1219,205.9797,154.0391,0,U,69326,999,134,.13161191E-3,.111E-5,0
SZ-22 MODULE,2025-272C,2026-06-10T23:11:31.096896,15.59968779,.00070706,41.4811,359.9208,34.2505,325.8789,0,U,69328,999,235,.23213204E-3,.19011E-3,0
STARLINK-37733,2026-122A,2026-06-11T06:00:02.000160,15.86462151,.00016595,97.2834,191.3407,71.8444,127.1112,0,U,69329,999,240,-.11398651E-1,-.2461225E-1,0
STARLINK-37772,2026-122B,2026-06-11T06:00:02.000160,15.88992372,.00015327,97.2837,191.3480,91.9736,123.6815,0,U,69330,999,235,-.8225219E-2,-.2024871E-1,0
STARLINK-37768,2026-122C,2026-06-11T06:00:02.000160,15.89133981,.00015282,97.2839,191.3503,70.8240,149.9672,0,U,69331,999,235,-.79145722E-2,-.1925593E-1,0
STARLINK-37833,2026-122D,2026-06-11T06:00:02.000160,15.89542760,.00015631,97.2839,191.3523,82.5242,143.3558,0,U,69332,999,235,-.94326543E-2,-.2707922E-1,.19017694E-2
STARLINK-37818,2026-122E,2026-06-11T06:00:02.000160,15.87545013,.00016157,97.2842,191.3524,83.6394,141.7723,0,U,69333,999,240,-.11061109E-1,-.2511198E-1,0
STARLINK-37868,2026-122F,2026-06-11T06:00:02.000160,15.89365895,.00012721,97.2844,191.3550,81.0676,150.6185,0,U,69334,999,240,-.47463192E-2,-.1197277E-1,0
STARLINK-37877,2026-122G,2026-06-11T06:00:02.000160,15.89350041,.00012801,97.2844,191.3552,82.3779,150.1620,0,U,69335,999,240,-.47293159E-2,-.1192699E-1,0
STARLINK-37791,2026-122H,2026-06-11T06:00:02.000160,15.88946270,.00012997,97.2845,191.3565,71.7073,163.9776,0,U,69336,999,240,-.27389868E-2,-.714852E-2,0
STARLINK-37765,2026-122J,2026-06-11T06:00:02.000160,15.89386225,.00011414,97.2848,191.3598,73.7592,170.0045,0,U,69337,999,245,-.2682264E-2,-.715585E-2,0
STARLINK-37788,2026-122K,2026-06-11T06:00:02.000160,15.90241157,.00015733,97.2852,191.3629,82.3316,168.6726,0,U,69338,999,240,-.83972409E-2,-.249781E-1,.16358928E-2
STARLINK-37743,2026-122L,2026-06-11T06:00:02.000160,15.90808431,.00014151,97.2852,191.3635,91.2639,161.1009,0,U,69339,999,240,-.94935638E-2,-.2904777E-1,.22201104E-2
STARLINK-37780,2026-122M,2026-06-11T06:00:02.000160,15.90965209,.00011556,97.2852,191.3645,95.8697,158.5352,0,U,69340,999,245,-.77908153E-2,-.2404436E-1,.15314187E-2
STARLINK-37781,2026-122N,2026-06-11T06:00:02.000160,15.89382882,.0001489,97.2853,191.3648,86.9482,167.8736,0,U,69341,999,240,-.99030706E-2,-.2820042E-1,.20576802E-2
STARLINK-37782,2026-122P,2026-06-11T06:00:02.000160,15.90986927,.00011582,97.2854,191.3687,84.3125,179.6289,0,U,69342,999,240,-.43177752E-2,-.1342658E-1,.51441673E-3
STARLINK-37776,2026-122Q,2026-06-11T06:00:02.000160,15.91142253,.00011554,97.2854,191.3698,83.4982,183.7559,0,U,69343,999,240,-.42805928E-2,-.1341651E-1,.51449153E-3
STARLINK-37786,2026-122R,2026-06-11T06:00:02.000160,15.91601169,.00011726,97.2860,191.3734,100.6317,174.9088,0,U,69344,999,240,-.4183476E-2,-.1342245E-1,.51725793E-3
STARLINK-37785,2026-122S,2026-06-11T06:00:02.000160,15.91577936,.00010349,97.2857,191.3736,84.1508,192.2314,0,U,69345,999,240,-.41476275E-2,-.1329273E-1,.507932E-3
STARLINK-37773,2026-122T,2026-06-11T06:00:02.000160,15.92238561,.00009271,97.2861,191.3753,70.7096,209.1791,0,U,69346,999,245,-.32650515E-2,-.1084421E-1,.35068358E-3
STARLINK-37744,2026-122U,2026-06-11T06:00:02.000160,15.92442387,.00008802,97.2862,191.3770,71.0381,213.1949,0,U,69347,999,240,-.32486055E-2,-.1090308E-1,.35495437E-3
STARLINK-37775,2026-122V,2026-06-11T06:00:02.000160,15.91644846,.00007772,97.2864,191.3788,88.3463,198.4796,0,U,69348,999,240,-.224986E-2,-.726597E-2,.16530626E-3
STARLINK-37777,2026-122W,2026-06-11T06:00:02.000160,15.92522267,.00007595,97.2864,191.3804,85.9682,205.0062,0,U,69349,999,240,-.25278181E-2,-.85333E-2,.22522703E-3
