GUOWANG TEST OBJECT A   
1 69320U 26120A   26158.46264223  .00009002  00000+0  24096-3 0  9996
2 69320  54.9967  71.5399 0009599 294.3963  65.6063 15.38803685  1198
GUOWANG TEST OBJECT B   
1 69321U 26120B   26162.03256373  .00009856  00000+0  26081-3 0  9995
2 69321  54.9985  55.4407 0009365 313.0317  46.9926 15.39043592  1748
GUOWANG TEST OBJECT C   
1 69322U 26120C   26158.91389784  .00016153  00000+0  41736-3 0  9993
2 69322  54.9968  69.4792 0009850 309.3319  50.6835 15.39284097  1266
GUOWANG TEST OBJECT D   
1 69323U 26120D   26162.22419455  .00003781  00000+0  10675-3 0  9993
2 69323  54.9983  54.5451 0010486 328.4140  31.6258 15.38912611  1775
QIANFAN-163             
1 69325U 26121A   26158.95635699  .00000032  00000+0  25988-4 0  9991
2 69325  89.0167 301.4498 0019200 214.2671 145.7248 13.60351284   905
QIANFAN-164             
1 69326U 26121B   26162.19174404  .00000111  00000+0  13161-3 0  9992
2 69326  89.0160 301.1219 0019336 205.9797 154.0391 13.60354960  1348
SZ-22 MODULE            
1 69328U 25272C   26161.96633214  .00019011  00000+0  23213-3 0  9991
2 69328  41.4811 359.9208 0007070  34.2505 325.8789 15.59968779  2356
STARLINK-37733          
1 69329U 26122A   26162.25002315 -.02461225  00000+0 -11399-1 0  9994
2 69329  97.2834 191.3407 0001659  71.8444 127.1112 15.86462151  2408
STARLINK-37772          
1 69330U 26122B   26162.25002315 -.02024871  00000+0 -82252-2 0  9995
2 69330  97.2837 191.3480 0001532  91.9736 123.6815 15.88992372  2351
STARLINK-37768          
1 69331U 26122C   26162.25002315 -.01925593  00000+0 -79146-2 0  9994
2 69331  97.2839 191.3503 0001528  70.8240 149.9672 15.89133981  2357
STARLINK-37833          
1 69332U 26122D   26162.25002315 -.02707922  19018-2 -94327-2 0  9990
2 69332  97.2839 191.3523 0001563  82.5242 143.3558 15.89542760  2351
STARLINK-37818          
1 69333U 26122E   26162.25002315 -.02511198  00000+0 -11061-1 0  9990
2 69333  97.2842 191.3524 0001615  83.6394 141.7723 15.87545013  2409
STARLINK-37868          
1 69334U 26122F   26162.25002315 -.01197277  00000+0 -47463-2 0  9994
2 69334  97.2844 191.3550 0001272  81.0676 150.6185 15.89365895  2406
STARLINK-37877          
1 69335U 26122G   26162.25002315 -.01192699  00000+0 -47293-2 0  9999
2 69335  97.2844 191.3552 0001280  82.3779 150.1620 15.89350041  2402
STARLINK-37791          
1 69336U 26122H   26162.25002315 -.00714852  00000+0 -27390-2 0  9996
2 69336  97.2845 191.3565 0001299  71.7073 163.9776 15.88946270  2405
STARLINK-37765          
1 69337U 26122J   26162.25002315 -.00715585  00000+0 -26823-2 0  9991
2 69337  97.2848 191.3598 0001141  73.7592 170.0045 15.89386225  2451
STARLINK-37788          
1 69338U 26122K   26162.25002315 -.02497810  16359-2 -83972-2 0  9997
2 69338  97.2852 191.3629 0001573  82.3316 168.6726 15.90241157  2401
STARLINK-37743          
1 69339U 26122L   26162.25002315 -.02904777  22201-2 -94936-2 0  9998
2 69339  97.2852 191.3635 0001415  91.2639 161.1009 15.90808431  2407
STARLINK-37780          
1 69340U 26122M   26162.25002315 -.02404436  15314-2 -77908-2 0  9994
2 69340  97.2852 191.3645 0001155  95.8697 158.5352 15.90965209  2458
STARLINK-37781          
1 69341U 26122N   26162.25002315 -.02820042  20577-2 -99031-2 0  9998
2 69341  97.2853 191.3648 0001489  86.9482 167.8736 15.89382882  2408
STARLINK-37782          
1 69342U 26122P   26162.25002315 -.01342658  51442-3 -43178-2 0  9997
2 69342  97.2854 191.3687 0001158  84.3125 179.6289 15.90986927  2408
STARLINK-37776          
1 69343U 26122Q   26162.25002315 -.01341651  51449-3 -42806-2 0  9994
2 69343  97.2854 191.3698 0001155  83.4982 183.7559 15.91142253  2402
STARLINK-37786          
1 69344U 26122R   26162.25002315 -.01342245  51726-3 -41835-2 0  9994
2 69344  97.2860 191.3734 0001172 100.6317 174.9088 15.91601169  2409
STARLINK-37785          
1 69345U 26122S   26162.25002315 -.01329273  50793-3 -41476-2 0  9995
2 69345  97.2857 191.3736 0001034  84.1508 192.2314 15.91577936  2402
STARLINK-37773          
1 69346U 26122T   26162.25002315 -.01084421  35068-3 -32651-2 0  9992
2 69346  97.2861 191.3753 0000927  70.7096 209.1791 15.92238561  2451
STARLINK-37744          
1 69347U 26122U   26162.25002315 -.01090308  35495-3 -32486-2 0  9994
2 69347  97.2862 191.3770 0000880  71.0381 213.1949 15.92442387  2409
STARLINK-37775          
1 69348U 26122V   26162.25002315 -.00726597  16531-3 -22499-2 0  9993
2 69348  97.2864 191.3788 0000777  88.3463 198.4796 15.91644846  2406
STARLINK-37777          
1 69349U 26122W   26162.25002315 -.00853330  22523-3 -25278-2 0  9996
2 69349  97.2864 191.3804 0000759  85.9682 205.0062 15.92522267  2406
